GSAT0215 (GALILEO 19)   
1 43055U 17079A   26158.63028270  .00000042  00000+0  00000+0 0  9995
2 43055  55.0756 221.7698 0003271 266.5445  93.5000  1.70474655 52820
GSAT0216 (GALILEO 20)   
1 43056U 17079B   26158.33485928  .00000042  00000+0  00000+0 0  9990
2 43056  55.0761 221.7781 0004156 276.5849  83.4502  1.70474847 52831
GSAT0217 (GALILEO 21)   
1 43057U 17079C   26159.14222367  .00000043  00000+0  00000+0 0  9998
2 43057  55.0741 221.7539 0003796 285.5927  74.4469  1.70474419 52845
GSAT0218 (GALILEO 22)   
1 43058U 17079D   26159.36230163  .00000044  00000+0  00000+0 0  9997
2 43058  55.0742 221.7453 0004132 273.2781  86.7561  1.70474754 52862
BEIDOU-3 M7             
1 43107U 18003A   26158.68523715 -.00000057  00000+0  00000+0 0  9997
2 43107  54.3370 302.6464 0004985  91.2024 268.8470  1.86228478 57179
BEIDOU-3 M8             
1 43108U 18003B   26158.63015616 -.00000056  00000+0  00000+0 0  9998
2 43108  54.3300 302.6304 0002450 266.3856  93.5786  1.86231337 57181
BEIDOU-3 M4             
1 43207U 18018A   26158.53611351 -.00000040  00000+0  00000+0 0  9994
2 43207  56.6419  63.4675 0007718  16.8501 343.2027  1.86231188 56565
BEIDOU-3 M3             
1 43208U 18018B   26159.13953664 -.00000042  00000+0  00000+0 0  9990
2 43208  56.6424  63.4518 0008812 338.8483  21.1416  1.86231220 56572
BEIDOU-3 M9             
1 43245U 18029A   26159.35731277 -.00000057  00000+0  00000+0 0  9997
2 43245  54.2026 300.2584 0000899 146.6725 213.3256  1.86228284 55731
BEIDOU-3 M10            
1 43246U 18029B   26159.29171367 -.00000057  00000+0  00000+0 0  9999
2 43246  54.2000 300.2865 0004008  38.1626 321.8582  1.86229558 55717
IRNSS-1I                
1 43286U 18035A   26159.85097360  .00000092  00000+0  00000+0 0  9990
2 43286  28.7347  74.3271 0017776 182.8915   1.2538  1.00270351 29999
COSMOS 2527 [GLONASS-M] 
1 43508U 18053A   26159.16868808 -.00000013  00000+0  00000+0 0  9998
2 43508  65.5727  74.2082 0007414 241.4309 118.5156  2.13102353 62089
BEIDOU-2 IGSO-7         
1 43539U 18057A   26158.95590420  .00000024  00000+0  00000+0 0  9995
2 43539  55.1932 163.1382 0104854 237.9598 310.0357  1.00254381 29037
GSAT0221 (GALILEO 25)   
1 43564U 18060A   26158.67965850 -.00000063  00000+0  00000+0 0  9993
2 43564  57.1742 342.0370 0002698 308.1771  51.8137  1.70476000 49004
GSAT0222 (GALILEO 26)   
1 43565U 18060B   26157.13954150 -.00000066  00000+0  00000+0 0  9998
2 43565  57.1798 342.0825 0001851 255.3617 104.6309  1.70475822 49024
GSAT0219 (GALILEO 23)   
1 43566U 18060C   26158.53362059 -.00000063  00000+0  00000+0 0  9992
2 43566  57.1754 342.0461 0002283 330.3501  29.6519  1.70475974 49026
GSAT0220 (GALILEO 24)   
1 43567U 18060D   26159.34118285 -.00000062  00000+0  00000+0 0  9992
2 43567  57.1759 342.0253 0002254 317.6959  42.3025  1.70475807 49023
BEIDOU-3 M5             
1 43581U 18062A   26158.44191418  .00000098  00000+0  00000+0 0  9997
2 43581  54.0850 182.6354 0005606 288.5273  71.4667  1.86228982 53450
BEIDOU-3 M6             
1 43582U 18062B   26158.84230056  .00000103  00000+0  00000+0 0  9991
2 43582  54.0845 182.6112 0004795   9.6261 350.4388  1.86227919 53464
BEIDOU-3 M12            
1 43602U 18067A   26159.31766145  .00000110  00000+0  00000+0 0  9993
2 43602  54.1798 181.3412 0007741  30.1174 329.9822  1.86227940 52951
BEIDOU-3 M11            
1 43603U 18067B   26157.84181631  .00000093  00000+0  00000+0 0  9991
2 43603  54.1771 181.3547 0004475  14.0592 346.0057  1.86227396 52953
BEIDOU-3 M13            
1 43622U 18072A   26157.25976809 -.00000038  00000+0  00000+0 0  9992
2 43622  56.6156  63.0201 0007663 326.1226  33.8571  1.86231624 52450
BEIDOU-3 M14            
1 43623U 18072B   26157.12520620 -.00000038  00000+0  00000+0 0  9995
2 43623  56.6172  63.0188 0006283 355.7751   4.2482  1.86231665 52448
BEIDOU-3 M16            
1 43647U 18078A   26159.42848971 -.00000058  00000+0  00000+0 0  9996
2 43647  54.0984 300.2932 0007334  40.8019 319.2453  1.86232291 51999
BEIDOU-3 M15            
1 43648U 18078B   26152.57744501 -.00000074  00000+0  00000+0 0  9998
2 43648  54.1007 300.5335 0004536  56.3394 303.6792  1.86232507 51887
BEIDOU-3 G1             
1 43683U 18085A   26159.73189774 -.00000092  00000+0  00000+0 0  9995
2 43683   2.8459  97.6156 0008508 347.2290 235.7388  1.00271619 27974
COSMOS 2529 [GLONASS-M] 
1 43687U 18086A   26158.32674069  .00000085  00000+0  00000+0 0  9991
2 43687  64.2943 192.9273 0011726 256.2462 103.6914  2.13102175 59072
BEIDOU-3 M17            
1 43706U 18093A   26158.64243694  .00000101  00000+0  00000+0 0  9991
2 43706  54.1686 182.6203 0010022 291.3761  66.7230  1.86228480 51355
BEIDOU-3 M18            
1 43707U 18093B   26159.58244834  .00000112  00000+0  00000+0 0  9995
2 43707  54.1691 182.5804 0007891 320.2458  39.7539  1.86226850 51376
NAVSTAR 77 (USA 289)    
1 43873U 18109A   26159.79063935  .00000010  00000+0  00000+0 0  9998
2 43873  55.6766  92.5186 0038211 198.1248 342.9699  2.00561284 54909
BEIDOU-3 IGSO-1         
1 44204U 19023A   26157.95428288 -.00000215  00000+0  00000+0 0  9993
2 44204  58.6799  37.7569 0025434 225.6649  92.8731  1.00294886  7105
